{
    "links": {
        "self": "http://www.neowsapp.com/rest/v1/neo/3745059?api_key=iIulBulltgU6a56xZRHN4H3l9WmuAYTsLGpBGhQ2"
    },
    "id": "3745059",
    "neo_reference_id": "3745059",
    "name": "(2016 EQ1)",
    "designation": "2016 EQ1",
    "nasa_jpl_url": "http://ssd.jpl.nasa.gov/sbdb.cgi?sstr=3745059",
    "absolute_magnitude_h": 26.3,
    "estimated_diameter": {
        "kilometers": {
            "estimated_diameter_min": 0.0146067964,
            "estimated_diameter_max": 0.0326617897
        },
        "meters": {
            "estimated_diameter_min": 14.6067964271,
            "estimated_diameter_max": 32.6617897446
        },
        "miles": {
            "estimated_diameter_min": 0.0090762397,
            "estimated_diameter_max": 0.020295089
        },
        "feet": {
            "estimated_diameter_min": 47.92256199,
            "estimated_diameter_max": 107.1581062656
        }
    },
    "is_potentially_hazardous_asteroid": false,
    "close_approach_data": [
        {
            "close_approach_date": "2016-03-24",
            "close_approach_date_full": "2016-Mar-24 04:47",
            "epoch_date_close_approach": 1458794820000,
            "relative_velocity": {
                "kilometers_per_second": "5.6957971706",
                "kilometers_per_hour": "20504.869814272",
                "miles_per_hour": "12740.9286909847"
            },
            "miss_distance": {
                "astronomical": "0.0213042932",
                "lunar": "8.2873700548",
                "kilometers": "3187076.884575484",
                "miles": "1980357.7456663192"
            },
            "orbiting_body": "Earth"
        }
    ],
    "orbital_data": {
        "orbit_id": "16",
        "orbit_determination_date": "2018-02-10 07:07:38",
        "first_observation_date": "2016-03-02",
        "last_observation_date": "2016-03-21",
        "data_arc_in_days": 19,
        "observations_used": 75,
        "orbit_uncertainty": "7",
        "minimum_orbit_intersection": ".00523262",
        "jupiter_tisserand_invariant": "4.449",
        "epoch_osculation": "2459000.5",
        "eccentricity": ".3411100482947532",
        "semi_major_axis": "1.514802241195366",
        "inclination": ".4034454412693771",
        "ascending_node_longitude": "327.6608293385568",
        "orbital_period": "680.9768298840222",
        "perihelion_distance": ".9980879755442144",
        "perihelion_argument": "236.2661610986811",
        "aphelion_distance": "2.031516506846518",
        "perihelion_time": "2458850.707938064977",
        "mean_anomaly": "79.18792524232062",
        "mean_motion": ".5286523479239549",
        "equinox": "J2000",
        "orbit_class": {
            "orbit_class_type": "APO",
            "orbit_class_description": "Near-Earth asteroid orbits which cross the Earth’s orbit similar to that of 1862 Apollo",
            "orbit_class_range": "a (semi-major axis) > 1.0 AU; q (perihelion) < 1.017 AU"
        }
    },
    "is_sentry_object": false
}